CZ-2C R/B               
1 54039U 22132E   26054.26988751  .00046212  00000+0  55497-3 0  9991
2 54039  97.2966  57.1656 0020372 137.6777 222.6057 15.60499116188120
GSLV R/B                
1 54149U 22138AN  26054.27940774  .00003831  00000+0  33221-3 0  9994
2 54149  87.3878 171.1839 0020914 198.1197 161.9292 14.96657198181778
XRISM                   
1 57800U 23137A   26054.24355614  .00006576  00000+0  37504-3 0  9998
2 57800  31.0036  17.0850 0008348 254.7755 105.1961 15.11304521135605
ACS3                    
1 59588U 24077B   26053.73322134  .00021575  00000+0  17627-1 0  9999
2 59588  97.2151 358.2085 0050493 119.2971 241.3252 13.88926057 92126
SZ-21 MODULE            
1 66515U 25246C   26053.97780113  .00038051  00000+0  34403-3 0  9997
2 66515  41.4753 293.8417 0001579 292.9076  67.1598 15.67341195 15767
