CCSDS_OMM_VERS = 2.0
CREATION_DATE  = 
ORIGINATOR     = 

OBJECT_NAME    = CZ-2C R/B
OBJECT_ID      = 2022-132E
CENTER_NAME    = EARTH
REF_FRAME      = TEME
TIME_SYSTEM    = UTC
MEAN_ELEMENT_THEORY = SGP/SGP4

EPOCH          = 2026-02-23T06:28:38.280864
MEAN_MOTION    = 15.60499116
ECCENTRICITY   = .00203725
INCLINATION    = 97.2966
RA_OF_ASC_NODE = 57.1656
ARG_OF_PERICENTER = 137.6777
MEAN_ANOMALY   = 222.6057

EPHEMERIS_TYPE = 0
CLASSIFICATION_TYPE = U
NORAD_CAT_ID   = 54039
ELEMENT_SET_NO = 999
REV_AT_EPOCH   = 18812
BSTAR          = .55496714E-3
MEAN_MOTION_DOT = .46212E-3
MEAN_MOTION_DDOT = 0

CCSDS_OMM_VERS = 2.0
CREATION_DATE  = 
ORIGINATOR     = 

OBJECT_NAME    = GSLV R/B
OBJECT_ID      = 2022-138AN
CENTER_NAME    = EARTH
REF_FRAME      = TEME
TIME_SYSTEM    = UTC
MEAN_ELEMENT_THEORY = SGP/SGP4

EPOCH          = 2026-02-23T06:42:20.828736
MEAN_MOTION    = 14.96657198
ECCENTRICITY   = .00209143
INCLINATION    = 87.3878
RA_OF_ASC_NODE = 171.1839
ARG_OF_PERICENTER = 198.1197
MEAN_ANOMALY   = 161.9292

EPHEMERIS_TYPE = 0
CLASSIFICATION_TYPE = U
NORAD_CAT_ID   = 54149
ELEMENT_SET_NO = 999
REV_AT_EPOCH   = 18177
BSTAR          = .33221263E-3
MEAN_MOTION_DOT = .3831E-4
MEAN_MOTION_DDOT = 0

CCSDS_OMM_VERS = 2.0
CREATION_DATE  = 
ORIGINATOR     = 

OBJECT_NAME    = XRISM
OBJECT_ID      = 2023-137A
CENTER_NAME    = EARTH
REF_FRAME      = TEME
TIME_SYSTEM    = UTC
MEAN_ELEMENT_THEORY = SGP/SGP4

EPOCH          = 2026-02-23T05:50:43.250496
MEAN_MOTION    = 15.11304521
ECCENTRICITY   = .00083482
INCLINATION    = 31.0036
RA_OF_ASC_NODE = 17.0850
ARG_OF_PERICENTER = 254.7755
MEAN_ANOMALY   = 105.1961

EPHEMERIS_TYPE = 0
CLASSIFICATION_TYPE = U
NORAD_CAT_ID   = 57800
ELEMENT_SET_NO = 999
REV_AT_EPOCH   = 13560
BSTAR          = .37503654E-3
MEAN_MOTION_DOT = .6576E-4
MEAN_MOTION_DDOT = 0

CCSDS_OMM_VERS = 2.0
CREATION_DATE  = 
ORIGINATOR     = 

OBJECT_NAME    = ACS3
OBJECT_ID      = 2024-077B
CENTER_NAME    = EARTH
REF_FRAME      = TEME
TIME_SYSTEM    = UTC
MEAN_ELEMENT_THEORY = SGP/SGP4

EPOCH          = 2026-02-22T17:35:50.323776
MEAN_MOTION    = 13.88926057
ECCENTRICITY   = .0050493
INCLINATION    = 97.2151
RA_OF_ASC_NODE = 358.2085
ARG_OF_PERICENTER = 119.2971
MEAN_ANOMALY   = 241.3252

EPHEMERIS_TYPE = 0
CLASSIFICATION_TYPE = U
NORAD_CAT_ID   = 59588
ELEMENT_SET_NO = 999
REV_AT_EPOCH   = 9212
BSTAR          = .17627E-1
MEAN_MOTION_DOT = .21575E-3
MEAN_MOTION_DDOT = 0

CCSDS_OMM_VERS = 2.0
CREATION_DATE  = 
ORIGINATOR     = 

OBJECT_NAME    = SZ-21 MODULE
OBJECT_ID      = 2025-246C
CENTER_NAME    = EARTH
REF_FRAME      = TEME
TIME_SYSTEM    = UTC
MEAN_ELEMENT_THEORY = SGP/SGP4

EPOCH          = 2026-02-22T23:28:02.017632
MEAN_MOTION    = 15.67341195
ECCENTRICITY   = .00015792
INCLINATION    = 41.4753
RA_OF_ASC_NODE = 293.8417
ARG_OF_PERICENTER = 292.9076
MEAN_ANOMALY   = 67.1598

EPHEMERIS_TYPE = 0
CLASSIFICATION_TYPE = U
NORAD_CAT_ID   = 66515
ELEMENT_SET_NO = 999
REV_AT_EPOCH   = 1576
BSTAR          = .34403083E-3
MEAN_MOTION_DOT = .38051E-3
MEAN_MOTION_DDOT = 0

